STARLINK-4052           
1 53171U 22083AR  25209.00671216  .00000906  00000+0  75012-4 0  9996
2 53171  53.2172  62.5217 0001359  88.8309 271.2839 15.08837871167853
STARLINK-4299           
1 53172U 22083AS  25209.81955905 -.00000557  00000+0 -16918-4 0  9990
2 53172  53.2178  84.0301 0001403  91.6064 268.5089 15.08836189168266
STARLINK-4300           
1 53173U 22083AT  25209.97228647  .00000776  00000+0  66845-4 0  9999
2 53173  53.2181  63.4207 0001365  93.9287 266.1861 15.08837902168565
STARLINK-4205           
1 53174U 22083AU  25209.39777652 -.00000635  00000+0 -21814-4 0  9994
2 53174  53.2178 100.9393 0001570  90.2291 269.8881 15.08836020167356
STARLINK-4292           
1 53175U 22083AV  25209.99666535  .00000067  00000+0  22279-4 0  9991
2 53175  53.2171  98.3208 0001478  89.9323 270.1839 15.08841182168087
STARLINK-4294           
1 53176U 22083AW  25209.33839844  .00001777  00000+0  12976-3 0  9996
2 53176  53.2180  76.1902 0001397  94.5804 265.5348 15.08833181167698
STARLINK-4298           
1 53177U 22083AX  25209.50124895 -.00000416  00000+0 -80474-5 0  9990
2 53177  53.2188  65.5316 0001408  89.0840 271.0314 15.08833712167853
STARLINK-4280           
1 53178U 22083AY  25209.85774794  .00000250  00000+0  33792-4 0  9992
2 53178  53.2169  88.9433 0001604  96.8285 263.2889 15.08838583168187
STARLINK-4276           
1 53179U 22083AZ  25209.98281750  .00000522  00000+0  50911-4 0  9996
2 53179  53.2184  47.9766 0001355  86.2551 273.8596 15.08837720168781
STARLINK-4258           
1 53180U 22083BA  25208.88253176  .00000291  00000+0  36366-4 0  9998
2 53180  53.2186  53.1924 0001306  91.5440 268.5702 15.08837037167973
STARLINK-4278           
1 53182U 22083BC  25210.02748488 -.00000374  00000+0 -54402-5 0  9990
2 53182  53.2183  63.1683 0001272  86.0701 274.0437 15.08840846168572
STARLINK-4268           
1 53183U 22083BD  25209.30711658 -.00000906  00000+0 -38864-4 0  9993
2 53183  53.2175  56.3281 0001375  89.3085 270.8065 15.08836630167966
STARLINK-4257           
1 53184U 22083BE  25209.84665573 -.00000627  00000+0 -21301-4 0  9995
2 53184  53.2189  48.5749 0001429  90.0189 270.0967 15.08840910168766
STARLINK-4391           
1 53189U 22084A   25209.76824103  .00000001  00000+0  46919-5 0  9995
2 53189  97.6534 270.7819 0003377  67.6651 292.4931 15.01261113166102
STARLINK-4332           
1 53190U 22084B   25210.12902419  .00000611  00000+0  52127-4 0  9990
2 53190  97.6568 271.1310 0002528 114.3431 245.8057 15.01265257166154
STARLINK-4369           
1 53191U 22084C   25209.62359085  .00001040  00000+0  85572-4 0  9996
2 53191  97.6536 270.6416 0001450  96.2829 263.8560 15.01258158165692
STARLINK-4375           
1 53192U 22084D   25210.15494333  .00000382  00000+0  34293-4 0  9995
2 53192  97.6544 271.1640 0000936 110.0874 250.0451 15.01261505166159
STARLINK-4351           
1 53193U 22084E   25210.16048194  .00002284  00000+0  18226-3 0  9997
2 53193  97.6534 271.1747 0002228  57.4194 302.7245 15.01274595166162
STARLINK-4382           
1 53194U 22084F   25209.75873611  .00000072  00000+0  10178-4 0  9993
2 53194  97.6537 270.7767 0001590  91.5104 268.6302 15.01259651166096
STARLINK-4404           
1 53195U 22084G   25210.25002315  .00039633  00000+0  20064-2 0  9994
2 53195  97.6559 271.6820 0001713  73.5519   1.9271 15.16885194166195
STARLINK-4407           
1 53196U 22084H   25210.25002315  .00016402  00000+0  85194-3 0  9990
2 53196  97.6559 271.6705 0001608  71.2456 323.3646 15.16178664166190
STARLINK-4403           
1 53197U 22084J   25210.14938761 -.00000441  00000+0 -29702-4 0  9994
2 53197  97.6546 271.1566 0001993 181.4729 178.6490 15.01259766166152
STARLINK-4385           
1 53198U 22084K   25209.75320119 -.00003388  00000+0 -25943-3 0  9997
2 53198  97.6550 270.7669 0000932 140.3846 219.7446 15.01238798166096
STARLINK-4395           
1 53199U 22084L   25210.15126656 -.00004268  00000+0 -32813-3 0  9996
2 53199  97.6550 271.1497 0000246 222.8269 137.2936 15.01231835166154
STARLINK-4417           
1 53200U 22084M   25209.61458212 -.00000269  00000+0 -16345-4 0  9994
2 53200  97.6554 270.6365 0002085 149.2004 210.9343 15.01249933166352
STARLINK-4405           
1 53201U 22084N   25209.60530679 -.00000173  00000+0 -89004-5 0  9999
2 53201  97.6549 270.6312 0003174 161.4951 198.6389 15.01259056165691
STARLINK-4411           
1 53202U 22084P   25209.74390734  .00001270  00000+0  10344-3 0  9997
2 53202  97.6543 270.7642 0003817 161.3661 198.7704 15.01275836166084
STARLINK-4409           
1 53203U 22084Q   25209.74021744  .00000013  00000+0  56467-5 0  9992
2 53203  97.6547 270.7521 0002787 169.7273 190.4009 15.01259407166095
STARLINK-4410           
1 53204U 22084R   25210.14408887  .00013494  00000+0  10521-2 0  9991
2 53204  97.6547 271.1541 0003899 165.1923 194.9416 15.01294923166150
STARLINK-4397           
1 53205U 22084S   25209.73651895  .00000263  00000+0  25102-4 0  9997
2 53205  97.6552 270.7486 0002753 130.1958 229.9508 15.01260139166094
