OBJECT_NAME,OBJECT_ID,EPOCH,MEAN_MOTION,ECCENTRICITY,INCLINATION,RA_OF_ASC_NODE,ARG_OF_PERICENTER,MEAN_ANOMALY,EPHEMERIS_TYPE,CLASSIFICATION_TYPE,NORAD_CAT_ID,ELEMENT_SET_NO,REV_AT_EPOCH,BSTAR,MEAN_MOTION_DOT,MEAN_MOTION_DDOT
STARLINK-4052,2022-083AR,2025-07-28T00:09:39.930624,15.08837871,.0001359,53.2172,62.5217,88.8309,271.2839,0,U,53171,999,16785,.75012E-4,.906E-5,0
STARLINK-4299,2022-083AS,2025-07-28T19:40:09.901920,15.08836189,.0001403,53.2178,84.0301,91.6064,268.5089,0,U,53172,999,16826,-.16918E-4,-.557E-5,0
STARLINK-4300,2022-083AT,2025-07-28T23:20:05.551008,15.08837902,.0001365,53.2181,63.4207,93.9287,266.1861,0,U,53173,999,16856,.66845E-4,.776E-5,0
STARLINK-4205,2022-083AU,2025-07-28T09:32:47.891328,15.08836020,.000157,53.2178,100.9393,90.2291,269.8881,0,U,53174,999,16735,-.21814E-4,-.635E-5,0
STARLINK-4292,2022-083AV,2025-07-28T23:55:11.886240,15.08841182,.0001478,53.2171,98.3208,89.9323,270.1839,0,U,53175,999,16808,.22279E-4,.67E-6,0
STARLINK-4294,2022-083AW,2025-07-28T08:07:17.625216,15.08833181,.0001397,53.2180,76.1902,94.5804,265.5348,0,U,53176,999,16769,.12976E-3,.1777E-4,0
STARLINK-4298,2022-083AX,2025-07-28T12:01:47.909280,15.08833712,.0001408,53.2188,65.5316,89.0840,271.0314,0,U,53177,999,16785,-.80474E-5,-.416E-5,0
STARLINK-4280,2022-083AY,2025-07-28T20:35:09.422016,15.08838583,.0001604,53.2169,88.9433,96.8285,263.2889,0,U,53178,999,16818,.33792E-4,.25E-5,0
STARLINK-4276,2022-083AZ,2025-07-28T23:35:15.432000,15.08837720,.0001355,53.2184,47.9766,86.2551,273.8596,0,U,53179,999,16878,.50911E-4,.522E-5,0
STARLINK-4258,2022-083BA,2025-07-27T21:10:50.744064,15.08837037,.0001306,53.2186,53.1924,91.5440,268.5702,0,U,53180,999,16797,.36366E-4,.291E-5,0
STARLINK-4278,2022-083BC,2025-07-29T00:39:34.693632,15.08840846,.0001272,53.2183,63.1683,86.0701,274.0437,0,U,53182,999,16857,-.54402E-5,-.374E-5,0
STARLINK-4268,2022-083BD,2025-07-28T07:22:14.872512,15.08836630,.0001375,53.2175,56.3281,89.3085,270.8065,0,U,53183,999,16796,-.38864E-4,-.906E-5,0
STARLINK-4257,2022-083BE,2025-07-28T20:19:11.055072,15.08840910,.0001429,53.2189,48.5749,90.0189,270.0967,0,U,53184,999,16876,-.21301E-4,-.627E-5,0
STARLINK-4391,2022-084A,2025-07-28T18:26:16.024992,15.01261113,.0003377,97.6534,270.7819,67.6651,292.4931,0,U,53189,999,16610,.46919E-5,.1E-7,0
STARLINK-4332,2022-084B,2025-07-29T03:05:47.690016,15.01265257,.0002528,97.6568,271.1310,114.3431,245.8057,0,U,53190,999,16615,.52127E-4,.611E-5,0
STARLINK-4369,2022-084C,2025-07-28T14:57:58.249440,15.01258158,.000145,97.6536,270.6416,96.2829,263.8560,0,U,53191,999,16569,.85572E-4,.104E-4,0
STARLINK-4375,2022-084D,2025-07-29T03:43:07.103712,15.01261505,.0000936,97.6544,271.1640,110.0874,250.0451,0,U,53192,999,16615,.34293E-4,.382E-5,0
STARLINK-4351,2022-084E,2025-07-29T03:51:05.639616,15.01274595,.0002228,97.6534,271.1747,57.4194,302.7245,0,U,53193,999,16616,.18226E-3,.2284E-4,0
STARLINK-4382,2022-084F,2025-07-28T18:12:34.799904,15.01259651,.000159,97.6537,270.7767,91.5104,268.6302,0,U,53194,999,16609,.10178E-4,.72E-6,0
STARLINK-4404,2022-084G,2025-07-29T06:00:02.000160,15.16885194,.0001713,97.6559,271.6820,73.5519,1.9271,0,U,53195,999,16619,.20064E-2,.39633E-3,0
STARLINK-4407,2022-084H,2025-07-29T06:00:02.000160,15.16178664,.0001608,97.6559,271.6705,71.2456,323.3646,0,U,53196,999,16619,.85194E-3,.16402E-3,0
STARLINK-4403,2022-084J,2025-07-29T03:35:07.089504,15.01259766,.0001993,97.6546,271.1566,181.4729,178.6490,0,U,53197,999,16615,-.29702E-4,-.441E-5,0
STARLINK-4385,2022-084K,2025-07-28T18:04:36.582816,15.01238798,.0000932,97.6550,270.7669,140.3846,219.7446,0,U,53198,999,16609,-.25943E-3,-.3388E-4,0
STARLINK-4395,2022-084L,2025-07-29T03:37:49.430784,15.01231835,.0000246,97.6550,271.1497,222.8269,137.2936,0,U,53199,999,16615,-.32813E-3,-.4268E-4,0
STARLINK-4417,2022-084M,2025-07-28T14:44:59.895168,15.01249933,.0002085,97.6554,270.6365,149.2004,210.9343,0,U,53200,999,16635,-.16345E-4,-.269E-5,0
STARLINK-4405,2022-084N,2025-07-28T14:31:38.506656,15.01259056,.0003174,97.6549,270.6312,161.4951,198.6389,0,U,53201,999,16569,-.89004E-5,-.173E-5,0
STARLINK-4411,2022-084P,2025-07-28T17:51:13.594176,15.01275836,.0003817,97.6543,270.7642,161.3661,198.7704,0,U,53202,999,16608,.10344E-3,.127E-4,0
STARLINK-4409,2022-084Q,2025-07-28T17:45:54.786816,15.01259407,.0002787,97.6547,270.7521,169.7273,190.4009,0,U,53203,999,16609,.56467E-5,.13E-6,0
STARLINK-4410,2022-084R,2025-07-29T03:27:29.278368,15.01294923,.0003899,97.6547,271.1541,165.1923,194.9416,0,U,53204,999,16615,.10521E-2,.13494E-3,0
STARLINK-4397,2022-084S,2025-07-28T17:40:35.237280,15.01260139,.0002753,97.6552,270.7486,130.1958,229.9508,0,U,53205,999,16609,.25102E-4,.263E-5,0
